{
  "type": "FeatureCollection",
  "features": [
    {
      "type": "Feature",
      "properties": {
        "norad_id": 46805,
        "name": "COSMOS 2547 (705K)",
        "group": "glo-ops",
        "lat": 62.87882397981661,
        "lon": -93.37107135061922,
        "alt_km": 19136.625847820174,
        "timestamp": "2025-12-19T18:58:41.849208+00:00",
        "meta_object_name": "COSMOS 2547 (705K)",
        "meta_object_id": "2020-075A",
        "meta_epoch": "2025-12-17T08:09:16.456320",
        "meta_mean_motion": 2.1310013,
        "meta_eccentricity": 0.0006169,
        "meta_inclination": 64.5962,
        "meta_ra_of_asc_node": 198.5429,
        "meta_arg_of_pericenter": 228.3795,
        "meta_mean_anomaly": 131.6499,
        "meta_ephemeris_type": 0,
        "meta_classification_type": "U",
        "meta_norad_cat_id": 46805,
        "meta_element_set_no": 999,
        "meta_rev_at_epoch": 4003,
        "meta_bstar": 0,
        "meta_mean_motion_dot": 1.12e-06,
        "meta_mean_motion_ddot": 0,
        "tle_line1": "1 46805U 20075A   25351.33977380  .00000112  00000+0  00000+0 0  9995",
        "tle_line2": "2 46805  64.5962 198.5429 0006169 228.3795 131.6499  2.13100130 40034"
      },
      "geometry": {
        "type": "Point",
        "coordinates": [
          -93.37107135061922,
          62.87882397981661
        ]
      }
    },
    {
      "type": "Feature",
      "properties": {
        "norad_id": 52984,
        "name": "COSMOS 2557 (706K)",
        "group": "glo-ops",
        "lat": -40.85504154628866,
        "lon": -63.69290981539325,
        "alt_km": 19106.813531846317,
        "timestamp": "2025-12-19T18:58:41.849221+00:00",
        "meta_object_name": "COSMOS 2557 (706K)",
        "meta_object_id": "2022-075A",
        "meta_epoch": "2025-12-18T21:54:24.162624",
        "meta_mean_motion": 2.1310197,
        "meta_eccentricity": 0.00135327,
        "meta_inclination": 64.4064,
        "meta_ra_of_asc_node": 320.8341,
        "meta_arg_of_pericenter": 277.9279,
        "meta_mean_anomaly": 81.9104,
        "meta_ephemeris_type": 0,
        "meta_classification_type": "U",
        "meta_norad_cat_id": 52984,
        "meta_element_set_no": 999,
        "meta_rev_at_epoch": 2687,
        "meta_bstar": 0,
        "meta_mean_motion_dot": -6.2e-07,
        "meta_mean_motion_ddot": 0,
        "tle_line1": "1 52984U 22075A   25352.91277966 -.00000062  00000+0  00000+0 0  9995",
        "tle_line2": "2 52984  64.4064 320.8341 0013532 277.9279  81.9104  2.13101970 26872"
      },
      "geometry": {
        "type": "Point",
        "coordinates": [
          -63.69290981539325,
          -40.85504154628866
        ]
      }
    },
    {
      "type": "Feature",
      "properties": {
        "norad_id": 54031,
        "name": "COSMOS 2559 (707K)",
        "group": "glo-ops",
        "lat": 64.28979923903081,
        "lon": 55.8069131045945,
        "alt_km": 19128.04979170543,
        "timestamp": "2025-12-19T18:58:41.849231+00:00",
        "meta_object_name": "COSMOS 2559 (707K)",
        "meta_object_id": "2022-130A",
        "meta_epoch": "2025-12-19T04:49:46.556256",
        "meta_mean_motion": 2.13101385,
        "meta_eccentricity": 0.00116154,
        "meta_inclination": 64.3786,
        "meta_ra_of_asc_node": 320.9137,
        "meta_arg_of_pericenter": 192.0143,
        "meta_mean_anomaly": 167.9504,
        "meta_ephemeris_type": 0,
        "meta_classification_type": "U",
        "meta_norad_cat_id": 54031,
        "meta_element_set_no": 999,
        "meta_rev_at_epoch": 2485,
        "meta_bstar": 0,
        "meta_mean_motion_dot": -6.1e-07,
        "meta_mean_motion_ddot": 0,
        "tle_line1": "1 54031U 22130A   25353.20123329 -.00000061  00000+0  00000+0 0  9997",
        "tle_line2": "2 54031  64.3786 320.9137 0011615 192.0143 167.9504  2.13101385 24853"
      },
      "geometry": {
        "type": "Point",
        "coordinates": [
          55.8069131045945,
          64.28979923903081
        ]
      }
    },
    {
      "type": "Feature",
      "properties": {
        "norad_id": 54377,
        "name": "COSMOS 2564 (761)",
        "group": "glo-ops",
        "lat": -28.48003704431254,
        "lon": 33.51835933581413,
        "alt_km": 19112.151069087824,
        "timestamp": "2025-12-19T18:58:41.849242+00:00",
        "meta_object_name": "COSMOS 2564 (761)",
        "meta_object_id": "2022-161A",
        "meta_epoch": "2025-12-19T01:05:24.764064",
        "meta_mean_motion": 2.13102078,
        "meta_eccentricity": 0.0008559,
        "meta_inclination": 64.7386,
        "meta_ra_of_asc_node": 198.6894,
        "meta_arg_of_pericenter": 204.0173,
        "meta_mean_anomaly": 156.0236,
        "meta_ephemeris_type": 0,
        "meta_classification_type": "U",
        "meta_norad_cat_id": 54377,
        "meta_element_set_no": 999,
        "meta_rev_at_epoch": 2379,
        "meta_bstar": 0,
        "meta_mean_motion_dot": 1.07e-06,
        "meta_mean_motion_ddot": 0,
        "tle_line1": "1 54377U 22161A   25353.04542551  .00000107  00000+0  00000+0 0  9998",
        "tle_line2": "2 54377  64.7386 198.6894 0008559 204.0173 156.0236  2.13102078 23799"
      },
      "geometry": {
        "type": "Point",
        "coordinates": [
          33.51835933581413,
          -28.48003704431254
        ]
      }
    },
    {
      "type": "Feature",
      "properties": {
        "norad_id": 57517,
        "name": "COSMOS 2569 (703K)",
        "group": "glo-ops",
        "lat": -19.338432255632785,
        "lon": -91.99047448158314,
        "alt_km": 19130.54456218608,
        "timestamp": "2025-12-19T18:58:41.849254+00:00",
        "meta_object_name": "COSMOS 2569 (703K)",
        "meta_object_id": "2023-114A",
        "meta_epoch": "2025-12-18T02:53:08.312640",
        "meta_mean_motion": 2.13104042,
        "meta_eccentricity": 0.00107503,
        "meta_inclination": 65.1969,
        "meta_ra_of_asc_node": 78.7317,
        "meta_arg_of_pericenter": 286.9993,
        "meta_mean_anomaly": 72.9048,
        "meta_ephemeris_type": 0,
        "meta_classification_type": "U",
        "meta_norad_cat_id": 57517,
        "meta_element_set_no": 999,
        "meta_rev_at_epoch": 1840,
        "meta_bstar": 0,
        "meta_mean_motion_dot": -4.2e-07,
        "meta_mean_motion_ddot": 0,
        "tle_line1": "1 57517U 23114A   25352.12023510 -.00000042  00000+0  00000+0 0  9992",
        "tle_line2": "2 57517  65.1969  78.7317 0010750 286.9993  72.9048  2.13104042 18405"
      },
      "geometry": {
        "type": "Point",
        "coordinates": [
          -91.99047448158314,
          -19.338432255632785
        ]
      }
    },
    {
      "type": "Feature",
      "properties": {
        "norad_id": 63130,
        "name": "COSMOS 2584 (704K)",
        "group": "glo-ops",
        "lat": -59.20419934789731,
        "lon": 27.45503154471138,
        "alt_km": 19129.449294731112,
        "timestamp": "2025-12-19T18:58:41.849265+00:00",
        "meta_object_name": "COSMOS 2584 (704K)",
        "meta_object_id": "2025-042A",
        "meta_epoch": "2025-12-18T11:25:35.911776",
        "meta_mean_motion": 2.13103072,
        "meta_eccentricity": 0.00077091,
        "meta_inclination": 64.979,
        "meta_ra_of_asc_node": 78.9506,
        "meta_arg_of_pericenter": 218.5301,
        "meta_mean_anomaly": 141.4378,
        "meta_ephemeris_type": 0,
        "meta_classification_type": "U",
        "meta_norad_cat_id": 63130,
        "meta_element_set_no": 999,
        "meta_rev_at_epoch": 619,
        "meta_bstar": 0,
        "meta_mean_motion_dot": -3.8e-07,
        "meta_mean_motion_ddot": 0,
        "tle_line1": "1 63130U 25042A   25352.47611009 -.00000038  00000+0  00000+0 0  9991",
        "tle_line2": "2 63130  64.9790  78.9506 0007709 218.5301 141.4378  2.13103072  6191"
      },
      "geometry": {
        "type": "Point",
        "coordinates": [
          27.45503154471138,
          -59.20419934789731
        ]
      }
    },
    {
      "type": "Feature",
      "properties": {
        "norad_id": 65590,
        "name": "COSMOS 2596 (708K)",
        "group": "glo-ops",
        "lat": 41.50359823034916,
        "lon": -14.103669112387946,
        "alt_km": 19131.640050220278,
        "timestamp": "2025-12-19T18:58:41.849276+00:00",
        "meta_object_name": "COSMOS 2596 (708K)",
        "meta_object_id": "2025-206B",
        "meta_epoch": "2025-12-19T05:43:44.942304",
        "meta_mean_motion": 2.13100506,
        "meta_eccentricity": 0.00140479,
        "meta_inclination": 64.7409,
        "meta_ra_of_asc_node": 321.2489,
        "meta_arg_of_pericenter": 306.8291,
        "meta_mean_anomaly": 36.6052,
        "meta_ephemeris_type": 0,
        "meta_classification_type": "U",
        "meta_norad_cat_id": 65590,
        "meta_element_set_no": 999,
        "meta_rev_at_epoch": 207,
        "meta_bstar": 0,
        "meta_mean_motion_dot": -6e-07,
        "meta_mean_motion_ddot": 0,
        "tle_line1": "1 65590U 25206B   25353.23871461 -.00000060  00000+0  00000+0 0  9995",
        "tle_line2": "2 65590  64.7409 321.2489 0014047 306.8291  36.6052  2.13100506  2070"
      },
      "geometry": {
        "type": "Point",
        "coordinates": [
          -14.103669112387946,
          41.50359823034916
        ]
      }
    }
  ]
}